RADCAL                  
1 22698U 93041A   09188.24549939  .00000013  00000-0  28389-6 0  3764
2 22698  89.5308  26.1236 0087243 251.8236 107.3440 14.22817609832128
STRV 1A                 
1 23125U 94034B   09188.37258227  .00001175  00000-0  28310-3 0  4643
2 23125   7.2893  74.3190 6839089 315.0028   6.8199  2.85080928140022
STRV 1B                 
1 23126U 94034C   09189.23696828  .00005170  00000-0  58944-3 0  4705
2 23126   7.4704  21.4256 6803882  61.3013 350.0675  2.92288310142263
HELIOS 1A               
1 23605U 95033A   09191.07894743  .00000197  00000-0  46637-4 0  2943
2 23605  98.0830 127.3425 0001553  26.8704 333.2601 14.63844213748521
REX 2                   
1 23814U 96014A   09190.43914310  .00000034  00000-0  10394-4 0  7235
2 23814  90.1618 272.6922 0020131 238.3121 121.6113 14.23867909692711
COSMOS 2346             
1 24953U 97052A   09191.24468927  .00000017  00000-0  12297-5 0  5257
2 24953  82.9204 298.4526 0041420  66.9173 293.6341 13.79433908593809
ARGOS                   
1 25634U 99008A   09190.18015065 -.00000238  00000-0 -92264-4 0  7610
2 25634  99.0097 227.6074 0009526 243.3702 116.6489 14.18908959537168
HELIOS 1B               
1 25977U 99064A   09191.04881908 -.00000525  00000-0 -65532-4 0  4293
2 25977  98.3412 192.6075 0000606 205.7418 154.3625 14.77702155515307
MTI                     
1 26102U 00014A   09191.11398198  .00000549  00000-0  35568-4 0  7825
2 26102  97.2201 354.0445 0020915  35.1338  29.1733 15.11768739512864
STRV 1C                 
1 26610U 00072C   09186.66306140 -.00000459  00000-0  00000+0 0  9532
2 26610   6.6676 278.2427 7320317  78.7205 348.6954  2.03457154 64192
OFEQ 5                  
1 27434U 02025A   09191.09131758  .00000637  00000-0  11826-4 0  3760
2 27434 143.4656  64.5725 0026142 219.6736 237.1759 15.05643395396743
HELIOS-2A               
1 28492U 04049A   09191.11211143 -.00000323  00000-0 -52864-4 0  1087
2 28492  98.0859 127.5274 0000967  59.7985 300.3208 14.63866215243499
ESSAIM-1                
1 28494U 04049C   09191.11685410 -.00000077  00000-0 -43002-5 0  1790
2 28494  98.2548 150.3876 0003401 142.1090 218.0364 14.70162893244454
ESSAIM-2                
1 28495U 04049D   09191.11640040 -.00000088  00000-0 -60984-5 0  2040
2 28495  98.2552 150.4952 0004481 142.6049 217.5479 14.70162449244452
ESSAIM-3                
1 28496U 04049E   09191.11698034 -.00000013  00000-0  64116-5 0  1325
2 28496  98.2677 154.8192 0009064 165.9354 194.2088 14.70164165244638
ESSAIM-4                
1 28497U 04049F   09191.11651556  .00000008  00000-0  98451-5 0  1832
2 28497  98.2685 154.8608 0012360 164.1301 196.0281 14.70164321244635
SAR-LUPE 1              
1 29658U 06060A   09191.11840517  .00000602  00000-0  26336-4 0  8608
2 29658  98.1328 292.7565 0020272 177.1459 302.7931 15.26447677142423
MIDSTAR-1               
1 30773U 07006B   09191.11639423 -.00000304  00000-0  00000+0 0  6660
2 30773  46.0246 235.5203 0010243 301.7297  58.2625 15.23750652130236
CFESAT                  
1 30777U 07006F   09190.42958581  .00000188  00000-0  16880-4 0  6157
2 30777  35.4344 328.3952 0002800  57.0505 303.0480 15.02769039128408
NFIRE                   
1 31140U 07014A   09190.76386889  .00004323  00000-0  57980-4 0  8764
2 31140  48.2338  85.5520 0051802 134.7219 225.7960 15.58730643125750
OFEQ 7                  
1 31601U 07025A   09191.08392676  .00001374  00000-0  39317-4 0  3598
2 31601 141.7465 238.8635 0072321 350.9205  60.7741 15.19636432115917
SAR-LUPE 2              
1 31797U 07030A   09191.11522360  .00000210  00000-0  11392-4 0  2645
2 31797  98.1876   2.5896 0014883 128.0327   8.9580 15.26465634112641
SAR-LUPE 3              
1 32283U 07053A   09191.12691345  .00000467  00000-0  21235-4 0  8964
2 32283  98.1205  64.1368 0009074 238.3827 291.6523 15.26409355 94153
SAR-LUPE 4              
1 32750U 08014A   09191.10548809  .00000487  00000-0  21960-4 0  4384
2 32750  98.1291 293.8040 0021415 354.7031 126.9278 15.26409888 71601
SAR-LUPE 5              
1 33244U 08036A   09191.11481147  .00000524  00000-0  23344-4 0   813
2 33244  98.1158  62.5483 0022309  40.4139 128.9246 15.26418574 53840
SPIRALE A               
1 33751U 09008C   09190.39210875  .00000033  00000-0  58223-3 0   989
2 33751   1.7726 241.9620 7141084 290.9728  10.2289  2.25838543  3319
SPIRALE B               
1 33752U 09008D   09190.41109441 -.00000021  00000-0  00000+0 0   837
2 33752   1.7773 242.2290 7138345 290.5029  10.3476  2.25845638  3317
TACSAT 3                
1 35001U 09028A   09190.85970969  .00001329  00000-0  39403-4 0   450
2 35001  40.4555 105.0666 0025860 328.1992  31.7275 15.38900739  7842
